[{"OBJECT_NAME":"MATS","OBJECT_ID":"2022-147A","EPOCH":"2026-03-09T23:39:00.807264","MEAN_MOTION":15.0466868,"ECCENTRICITY":0.00129708,"INCLINATION":97.6844,"RA_OF_ASC_NODE":71.061,"ARG_OF_PERICENTER":166.9988,"MEAN_ANOMALY":193.1575,"EPHEMERIS_TYPE":0,"CLASSIFICATION_TYPE":"U","NORAD_CAT_ID":54227,"ELEMENT_SET_NO":999,"REV_AT_EPOCH":18284,"BSTAR":0.00029670702,"MEAN_MOTION_DOT":4.118e-5,"MEAN_MOTION_DDOT":0},{"OBJECT_NAME":"STARLINK-35234","OBJECT_ID":"2025-207K","EPOCH":"2026-03-09T17:16:40.118592","MEAN_MOTION":15.056629,"ECCENTRICITY":0.00028496,"INCLINATION":97.6007,"RA_OF_ASC_NODE":138.6563,"ARG_OF_PERICENTER":188.3663,"MEAN_ANOMALY":171.7517,"EPHEMERIS_TYPE":0,"CLASSIFICATION_TYPE":"U","NORAD_CAT_ID":65601,"ELEMENT_SET_NO":999,"REV_AT_EPOCH":2826,"BSTAR":7.6963005e-5,"MEAN_MOTION_DOT":1.05e-5,"MEAN_MOTION_DDOT":0}]
